{
  "type": "FeatureCollection",
  "features": [
    {
      "type": "Feature",
      "properties": {
        "norad_id": 30683,
        "name": "FENGYUN 1C DEB",
        "group": "fengyun-1c-debris",
        "lat": 51.388241359986786,
        "lon": 0.21790772021726587,
        "alt_km": 957.9138096662864,
        "timestamp": "2025-12-26T07:29:18.733688+00:00",
        "meta_object_name": "FENGYUN 1C DEB",
        "meta_object_id": "1999-025AQR",
        "meta_epoch": "2025-12-25T13:06:58.710240",
        "meta_mean_motion": 14.00429844,
        "meta_eccentricity": 0.0138248,
        "meta_inclination": 99.4266,
        "meta_ra_of_asc_node": 11.4351,
        "meta_arg_of_pericenter": 189.5826,
        "meta_mean_anomaly": 326.7246,
        "meta_ephemeris_type": 0,
        "meta_classification_type": "U",
        "meta_norad_cat_id": 30683,
        "meta_element_set_no": 999,
        "meta_rev_at_epoch": 95730,
        "meta_bstar": 0.001076,
        "meta_mean_motion_dot": 1.686e-05,
        "meta_mean_motion_ddot": 0,
        "tle_line1": "1 30683U 99025AQR 25359.54651285  .00001686  00000+0  10760-2 0  9991",
        "tle_line2": "2 30683  99.4266  11.4351 0138248 189.5826 326.7246 14.00429844957308"
      },
      "geometry": {
        "type": "Point",
        "coordinates": [
          0.21790772021726587,
          51.388241359986786
        ]
      }
    },
    {
      "type": "Feature",
      "properties": {
        "norad_id": 30684,
        "name": "FENGYUN 1C DEB",
        "group": "fengyun-1c-debris",
        "lat": 29.250316413470227,
        "lon": 36.1096117764572,
        "alt_km": 1167.251907966037,
        "timestamp": "2025-12-26T07:29:18.733700+00:00",
        "meta_object_name": "FENGYUN 1C DEB",
        "meta_object_id": "1999-025AQS",
        "meta_epoch": "2025-12-25T13:46:12.707616",
        "meta_mean_motion": 13.66832566,
        "meta_eccentricity": 0.023623,
        "meta_inclination": 99.5309,
        "meta_ra_of_asc_node": 40.7807,
        "meta_arg_of_pericenter": 236.4133,
        "meta_mean_anomaly": 121.4261,
        "meta_ephemeris_type": 0,
        "meta_classification_type": "U",
        "meta_norad_cat_id": 30684,
        "meta_element_set_no": 999,
        "meta_rev_at_epoch": 93804,
        "meta_bstar": 0.0010195,
        "meta_mean_motion_dot": 9.85e-06,
        "meta_mean_motion_ddot": 0,
        "tle_line1": "1 30684U 99025AQS 25359.57375819  .00000985  00000+0  10195-2 0  9994",
        "tle_line2": "2 30684  99.5309  40.7807 0236230 236.4133 121.4261 13.66832566938049"
      },
      "geometry": {
        "type": "Point",
        "coordinates": [
          36.1096117764572,
          29.250316413470227
        ]
      }
    },
    {
      "type": "Feature",
      "properties": {
        "norad_id": 30686,
        "name": "FENGYUN 1C DEB",
        "group": "fengyun-1c-debris",
        "lat": 21.63195296779646,
        "lon": 19.370027466468088,
        "alt_km": 628.1094415467687,
        "timestamp": "2025-12-26T07:29:18.733711+00:00",
        "meta_object_name": "FENGYUN 1C DEB",
        "meta_object_id": "1999-025AQU",
        "meta_epoch": "2025-12-25T00:31:59.014848",
        "meta_mean_motion": 14.73999147,
        "meta_eccentricity": 0.01440618,
        "meta_inclination": 99.0328,
        "meta_ra_of_asc_node": 194.3169,
        "meta_arg_of_pericenter": 82.5561,
        "meta_mean_anomaly": 73.5306,
        "meta_ephemeris_type": 0,
        "meta_classification_type": "U",
        "meta_norad_cat_id": 30686,
        "meta_element_set_no": 999,
        "meta_rev_at_epoch": 99782,
        "meta_bstar": 0.00068849051,
        "meta_mean_motion_dot": 5.279e-05,
        "meta_mean_motion_ddot": 0,
        "tle_line1": "1 30686U 99025AQU 25359.02221082  .00005279  00000+0  68849-3 0  9999",
        "tle_line2": "2 30686  99.0328 194.3169 0144061  82.5561  73.5306 14.73999147997825"
      },
      "geometry": {
        "type": "Point",
        "coordinates": [
          19.370027466468088,
          21.63195296779646
        ]
      }
    },
    {
      "type": "Feature",
      "properties": {
        "norad_id": 30688,
        "name": "FENGYUN 1C DEB",
        "group": "fengyun-1c-debris",
        "lat": -77.87881358790091,
        "lon": -151.7350116494502,
        "alt_km": 778.474981012585,
        "timestamp": "2025-12-26T07:29:18.733722+00:00",
        "meta_object_name": "FENGYUN 1C DEB",
        "meta_object_id": "1999-025AQW",
        "meta_epoch": "2025-12-25T03:35:53.388672",
        "meta_mean_motion": 14.32798293,
        "meta_eccentricity": 0.00159684,
        "meta_inclination": 98.7001,
        "meta_ra_of_asc_node": 72.5751,
        "meta_arg_of_pericenter": 276.689,
        "meta_mean_anomaly": 114.0669,
        "meta_ephemeris_type": 0,
        "meta_classification_type": "U",
        "meta_norad_cat_id": 30688,
        "meta_element_set_no": 999,
        "meta_rev_at_epoch": 97438,
        "meta_bstar": 0.00169054,
        "meta_mean_motion_dot": 4.572e-05,
        "meta_mean_motion_ddot": 0,
        "tle_line1": "1 30688U 99025AQW 25359.14992348  .00004572  00000+0  16905-2 0  9994",
        "tle_line2": "2 30688  98.7001  72.5751 0015968 276.6890 114.0669 14.32798293974382"
      },
      "geometry": {
        "type": "Point",
        "coordinates": [
          -151.7350116494502,
          -77.87881358790091
        ]
      }
    },
    {
      "type": "Feature",
      "properties": {
        "norad_id": 30689,
        "name": "FENGYUN 1C DEB",
        "group": "fengyun-1c-debris",
        "lat": -47.366083347560455,
        "lon": -4.26324752392854,
        "alt_km": 890.949515191217,
        "timestamp": "2025-12-26T07:29:18.733733+00:00",
        "meta_object_name": "FENGYUN 1C DEB",
        "meta_object_id": "1999-025AQX",
        "meta_epoch": "2025-12-25T21:46:59.398752",
        "meta_mean_motion": 14.11786601,
        "meta_eccentricity": 0.01117614,
        "meta_inclination": 98.7095,
        "meta_ra_of_asc_node": 345.7596,
        "meta_arg_of_pericenter": 66.2168,
        "meta_mean_anomaly": 352.8133,
        "meta_ephemeris_type": 0,
        "meta_classification_type": "U",
        "meta_norad_cat_id": 30689,
        "meta_element_set_no": 999,
        "meta_rev_at_epoch": 97076,
        "meta_bstar": 0.00042088264,
        "meta_mean_motion_dot": 7.72e-06,
        "meta_mean_motion_ddot": 0,
        "tle_line1": "1 30689U 99025AQX 25359.90763193  .00000772  00000+0  42088-3 0  9993",
        "tle_line2": "2 30689  98.7095 345.7596 0111761  66.2168 352.8133 14.11786601970760"
      },
      "geometry": {
        "type": "Point",
        "coordinates": [
          -4.26324752392854,
          -47.366083347560455
        ]
      }
    },
    {
      "type": "Feature",
      "properties": {
        "norad_id": 30690,
        "name": "FENGYUN 1C DEB",
        "group": "fengyun-1c-debris",
        "lat": -76.5425016367165,
        "lon": 68.38320978800148,
        "alt_km": 949.9218110773227,
        "timestamp": "2025-12-26T07:29:18.733744+00:00",
        "meta_object_name": "FENGYUN 1C DEB",
        "meta_object_id": "1999-025AQY",
        "meta_epoch": "2025-12-25T18:31:07.695840",
        "meta_mean_motion": 14.02384199,
        "meta_eccentricity": 0.01049637,
        "meta_inclination": 99.1595,
        "meta_ra_of_asc_node": 290.2348,
        "meta_arg_of_pericenter": 40.4445,
        "meta_mean_anomaly": 13.6394,
        "meta_ephemeris_type": 0,
        "meta_classification_type": "U",
        "meta_norad_cat_id": 30690,
        "meta_element_set_no": 999,
        "meta_rev_at_epoch": 95890,
        "meta_bstar": 0.0017542469,
        "meta_mean_motion_dot": 2.783e-05,
        "meta_mean_motion_ddot": 0,
        "tle_line1": "1 30690U 99025AQY 25359.77161685  .00002783  00000+0  17542-2 0  9998",
        "tle_line2": "2 30690  99.1595 290.2348 0104963  40.4445  13.6394 14.02384199958908"
      },
      "geometry": {
        "type": "Point",
        "coordinates": [
          68.38320978800148,
          -76.5425016367165
        ]
      }
    },
    {
      "type": "Feature",
      "properties": {
        "norad_id": 30691,
        "name": "FENGYUN 1C DEB",
        "group": "fengyun-1c-debris",
        "lat": -11.926539007856327,
        "lon": 12.760489558849859,
        "alt_km": 1024.7085625372802,
        "timestamp": "2025-12-26T07:29:18.733755+00:00",
        "meta_object_name": "FENGYUN 1C DEB",
        "meta_object_id": "1999-025AQZ",
        "meta_epoch": "2025-12-25T13:10:12.042336",
        "meta_mean_motion": 13.89468034,
        "meta_eccentricity": 0.0139659,
        "meta_inclination": 98.7427,
        "meta_ra_of_asc_node": 10.181,
        "meta_arg_of_pericenter": 198.0062,
        "meta_mean_anomaly": 293.4196,
        "meta_ephemeris_type": 0,
        "meta_classification_type": "U",
        "meta_norad_cat_id": 30691,
        "meta_element_set_no": 999,
        "meta_rev_at_epoch": 95294,
        "meta_bstar": 0.001004,
        "meta_mean_motion_dot": 1.286e-05,
        "meta_mean_motion_ddot": 0,
        "tle_line1": "1 30691U 99025AQZ 25359.54875049  .00001286  00000+0  10040-2 0  9993",
        "tle_line2": "2 30691  98.7427  10.1810 0139659 198.0062 293.4196 13.89468034952947"
      },
      "geometry": {
        "type": "Point",
        "coordinates": [
          12.760489558849859,
          -11.926539007856327
        ]
      }
    }
  ]
}